OBJECT_NAME,OBJECT_ID,EPOCH,MEAN_MOTION,ECCENTRICITY,INCLINATION,RA_OF_ASC_NODE,ARG_OF_PERICENTER,MEAN_ANOMALY,EPHEMERIS_TYPE,CLASSIFICATION_TYPE,NORAD_CAT_ID,ELEMENT_SET_NO,REV_AT_EPOCH,BSTAR,MEAN_MOTION_DOT,MEAN_MOTION_DDOT
KAZEOSAT 1,2014-024A,2024-08-13T19:19:46.630848,14.42025666,.0001177,98.3922,302.3045,88.0349,272.0975,0,U,39731,999,54165,.3858E-3,.1223E-4,0
NAVSTAR 70 (USA 251),2014-026A,2024-08-15T20:53:35.971872,2.00563978,.0031161,56.7063,357.5573,314.6651,45.0911,0,U,39741,999,7508,0,-.79E-6,0
COSMOS 2496,2014-028A,2024-08-13T18:56:01.384224,12.42871488,.0020878,82.4483,169.8960,102.3382,258.0036,0,U,39761,999,46398,.26347E-3,.46E-6,0
COSMOS 2497,2014-028B,2024-08-13T20:13:19.620480,12.42885828,.0021593,82.4530,171.2828,96.7271,263.6266,0,U,39762,999,46399,.37895E-3,.63E-6,0
COSMOS 2498,2014-028C,2024-08-13T20:49:26.705280,12.42943489,.00222,82.4493,170.0401,96.8784,263.4822,0,U,39763,999,46402,.23441E-3,.43E-6,0
ALOS-2,2014-029A,2024-08-13T19:13:26.941728,14.79450085,.0001693,97.9221,322.6193,98.5023,261.6380,0,U,39766,999,55216,.10922E-2,.811E-4,0
UNIFORM 1,2014-029B,2024-08-16T05:28:24.918816,14.89563288,.0005895,97.8197,320.2407,27.9513,332.2020,0,U,39767,999,55425,.75879E-3,.7189E-4,0
SOCRATES,2014-029C,2024-08-16T05:06:08.402400,14.89420885,.0007327,97.8776,330.3174,47.3323,312.8510,0,U,39768,999,55446,.70769E-3,.6678E-4,0
RISING 2,2014-029D,2024-08-13T20:25:46.251264,14.85947939,.0004038,97.7331,299.0443,40.0997,320.0516,0,U,39769,999,55321,.17359E-2,.15127E-3,0
EUTELSAT 3B,2014-030A,2024-08-15T21:08:42.746784,1.00271784,.0004626,0.0633,2.4708,152.5710,129.9855,0,U,39773,999,3749,0,.25E-6,0
COSMOS 2500 [GLONASS-M],2014-032A,2024-08-12T04:34:20.950464,2.13105959,.0007992,65.5873,336.5481,195.6859,164.3145,0,U,40001,999,7909,0,-.72E-6,0
KAZEOSAT 2,2014-033A,2024-08-13T21:23:41.727552,14.82649035,.0012473,97.6134,89.2251,26.4826,333.7023,0,U,40010,999,54921,.36878E-3,.2926E-4,0
HODOYOSHI-4,2014-033B,2024-08-13T20:51:56.958336,14.84582775,.0025424,97.5781,73.7149,13.5450,346.6442,0,U,40011,999,54891,.66763E-3,.562E-4,0
UNISAT-6,2014-033C,2024-08-15T21:34:42.293568,14.80628720,.0053006,97.7091,28.9324,110.1157,250.5770,0,U,40012,999,54667,.11446E-2,.8959E-4,0
DEIMOS-2,2014-033D,2024-08-13T20:18:52.111872,14.89226396,.0002476,97.6730,111.7751,75.8696,284.2797,0,U,40013,999,53747,.76322E-3,.7171E-4,0
BUGSAT-1 (TITA),2014-033E,2024-08-13T20:53:32.502048,15.04979854,.0033568,98.1224,271.4074,300.9704,58.8224,0,U,40014,999,55431,.95156E-3,.13612E-3,0
HODOYOSHI-3,2014-033F,2024-08-16T01:45:53.200224,14.81620136,.0035935,97.5985,51.7751,40.6834,319.7054,0,U,40015,999,54826,.62715E-3,.4937E-4,0
SAUDISAT 4,2014-033G,2024-08-15T22:28:05.221920,14.77395071,.0048005,97.6723,31.8091,94.4307,266.2391,0,U,40016,999,54702,.40292E-3,.2872E-4,0
APRIZESAT 9,2014-033J,2024-08-15T22:31:19.834464,14.72146343,.0068337,97.8107,12.1955,194.0444,165.8865,0,U,40018,999,54499,.48393E-3,.3111E-4,0
APRIZESAT 10,2014-033K,2024-08-15T22:43:08.083776,14.69025736,.0080079,97.8755,4.1673,253.8225,105.4157,0,U,40019,999,54395,.39613E-3,.2388E-4,0
BRITE-CA1 (TORONTO),2014-033L,2024-08-16T03:25:35.124960,14.69710556,.008149,97.8846,4.1896,260.5762,98.6225,0,U,40020,999,54378,.63959E-3,.3958E-4,0
DUCHIFAT-1,2014-033M,2024-08-15T22:29:17.340000,15.09501538,.001009,98.0927,215.9340,250.9493,109.0642,0,U,40021,999,55313,.16639E-2,.26709E-3,0
NANOSATC-BR1,2014-033Q,2024-08-15T19:36:00.011520,15.05052566,.0004835,98.0664,203.4722,350.0981,10.0148,0,U,40024,999,55221,.15597E-2,.22157E-3,0
QB50P1,2014-033R,2024-08-15T15:25:19.197984,15.01035378,.001321,98.0465,191.4020,342.6664,17.4106,0,U,40025,999,55179,.13044E-2,.16661E-3,0
DTUSAT-2,2014-033W,2024-08-15T18:19:22.683936,14.99618434,.0007491,98.0124,182.8321,338.7183,21.3727,0,U,40030,999,55162,.12993E-2,.15971E-3,0
QB50P2,2014-033Y,2024-08-16T03:08:05.095392,14.99656852,.0008268,98.0063,183.2170,312.9811,47.0718,0,U,40032,999,55217,.11874E-2,.14604E-3,0
PERSEUS-M2,2014-033AD,2024-08-15T16:49:12.619200,14.90915160,.0013065,97.9255,159.7158,7.6312,352.5102,0,U,40037,999,55069,.62183E-3,.6089E-4,0
PERSEUS-M1,2014-033AF,2024-08-15T14:24:30.553632,14.90712436,.0012811,97.9045,155.4992,6.9212,353.2180,0,U,40039,999,55104,.60239E-3,.5867E-4,0
POLYITAN-1,2014-033AJ,2024-08-15T19:01:51.566880,15.04331717,.0010426,98.0727,195.5996,295.0992,64.9150,0,U,40042,999,55179,.16781E-2,.23415E-3,0
TIGRISAT,2014-033AK,2024-08-16T05:02:24.330048,14.79504214,.0055952,97.7012,29.3829,107.7147,253.0184,0,U,40043,999,54663,.10541E-2,.8047E-4,0
LEMUR-1,2014-033AL,2024-08-15T23:49:39.673056,14.79430346,.0055075,97.7051,28.5899,111.7019,249.0070,0,U,40044,999,54654,.99869E-3,.7601E-4,0
AEROCUBE 6A,2014-033AM,2024-08-16T04:56:02.689152,14.84647955,.0050307,97.6735,40.3636,84.7629,275.9324,0,U,40045,999,54693,.17114E-2,.14774E-3,0
AEROCUBE 6B,2014-033AN,2024-08-15T22:28:00.186528,14.85541121,.0048939,97.6703,38.8631,80.8283,279.8465,0,U,40046,999,54671,.16162E-2,.1424E-3,0
SPOT 7,2014-034A,2024-08-13T20:31:24.508992,14.59527246,.0001479,98.1542,292.6696,106.2139,253.9224,0,U,40053,999,53900,.61042E-3,.2854E-4,0
CANX-4,2014-034C,2024-08-16T03:57:36.695520,14.78389785,.0013438,98.3914,66.4133,5.0776,355.0567,0,U,40055,999,54544,.58074E-3,.418E-4,0
CANX-5,2014-034D,2024-08-16T04:04:30.094464,14.78399539,.0013435,98.3918,66.4249,5.2672,354.8676,0,U,40056,999,54544,.57949E-3,.4171E-4,0
OCO 2,2014-035A,2024-08-15T22:33:51.712704,14.57077420,.0001373,98.2032,168.8204,76.5841,283.5511,0,U,40059,999,53844,.48965E-3,.216E-4,0
GONETS-M 8,2014-036A,2024-08-13T18:43:43.300992,12.42950862,.003024,82.5138,5.2433,174.7094,185.4311,0,U,40061,999,45891,.33208E-3,.56E-6,0
GONETS-M 9,2014-036B,2024-08-13T19:16:56.607744,12.42918165,.002341,82.5137,5.2862,180.5806,179.5250,0,U,40062,999,45892,.36402E-3,.6E-6,0
GONETS-M 10,2014-036C,2024-08-13T18:48:26.563392,12.42916315,.002226,82.5141,5.2849,167.1406,193.0246,0,U,40063,999,45871,.27826E-3,.49E-6,0
METEOR-M 2,2014-037A,2024-08-13T20:09:11.306016,14.21020481,.0005637,98.4402,218.5110,178.5012,181.6184,0,U,40069,999,52381,.33132E-3,.677E-5,0
DX1,2014-037C,2024-08-13T19:55:54.901056,14.85287067,.000644,98.3283,141.9387,302.8438,57.2155,0,U,40071,999,54611,.83421E-3,.7113E-4,0
SKYSAT-B,2014-037D,2024-08-15T12:07:21.986976,14.84403846,.0004625,98.3278,142.8916,298.2345,61.8401,0,U,40072,999,54640,.52005E-3,.4315E-4,0
UKUBE-1,2014-037F,2024-08-16T01:28:41.291328,14.95182395,.0002776,98.3413,162.7157,204.8379,155.2706,0,U,40074,999,54772,.13878E-2,.15208E-3,0
AISSAT 2,2014-037G,2024-08-16T01:30:04.977504,14.87456065,.0003619,98.3313,151.2251,295.1538,64.9301,0,U,40075,999,54696,.77064E-3,.6924E-4,0
TECHDEMOSAT-1 (TDS-1),2014-037H,2024-08-16T00:57:14.891616,14.95693105,.000593,98.3254,155.1529,38.8907,321.2738,0,U,40076,999,54746,.14523E-2,.16133E-3,0
O3B FM3,2014-038A,2024-08-13T20:57:48.081024,5.00114628,.0004748,0.0523,352.4887,174.3613,193.1629,0,U,40079,999,17941,0,-.16E-6,0
O3B FM7,2014-038B,2024-08-15T19:39:01.194912,5.00116236,.0001475,0.0528,347.5280,110.2654,262.2235,0,U,40080,999,18463,0,-.15E-6,0
O3B FM6,2014-038C,2024-08-15T15:30:16.014816,5.00115410,.0002604,0.0511,352.4080,153.3090,214.3000,0,U,40081,999,18461,0,-.15E-6,0
O3B FM8,2014-038D,2024-08-15T16:47:18.108096,5.00115480,.0002743,0.0515,351.2318,149.5937,219.1945,0,U,40082,999,18459,0,-.15E-6,0
ORBCOMM FM109,2014-040A,2024-08-15T21:32:50.992224,14.56965202,.0001817,47.0041,16.9821,323.7900,36.2862,0,U,40086,999,53652,.64197E-3,.2745E-4,0
ORBCOMM FM107,2014-040B,2024-08-15T20:42:50.482656,14.56954689,.0001797,47.0058,18.1224,288.9203,71.1487,0,U,40087,999,53659,.5816E-3,.247E-4,0
ORBCOMM FM103,2014-040F,2024-08-15T21:23:05.863776,14.56896511,.0002374,47.0062,18.3844,297.4082,62.6561,0,U,40091,999,51956,.67586E-3,.2894E-4,0
NAVSTAR 71 (USA 256),2014-045A,2024-08-14T23:10:25.002624,2.00570421,.0027799,54.9539,115.2595,114.8558,245.4924,0,U,40105,999,7261,0,-.15E-6,0
ASIASAT 8 (AMOS-7),2014-046A,2024-08-15T21:08:42.746784,1.00271547,.0001991,0.0648,283.8864,202.6163,151.5705,0,U,40107,999,3677,0,-.28E-6,0
YAOGAN-20 01A,2014-047A,2024-08-13T20:14:08.741472,13.45312409,.0330981,63.3865,311.5781,11.3355,349.4895,0,U,40109,999,49198,.13532E-3,.21E-6,0
YAOGAN-20 01B,2014-047B,2024-08-13T20:15:39.081312,13.45312149,.0330837,63.3865,312.4450,11.3630,349.4634,0,U,40110,999,49182,.11482E-3,.4E-7,0
YAOGAN-20 01C,2014-047C,2024-08-13T20:09:22.232160,13.45321351,.0330961,63.3856,312.2206,11.6974,349.1504,0,U,40111,999,49183,.13219E-3,.18E-6,0
WORLDVIEW-3 (WV-3),2014-048A,2024-08-16T05:27:36.934848,14.85378047,.0000837,97.8649,301.7318,91.9544,268.1767,0,U,40115,999,54251,.48482E-3,.412E-4,0
GAOFEN-2,2014-049A,2024-08-13T20:36:45.518688,14.80445141,.0007041,98.1077,277.2962,227.4216,132.6402,0,U,40118,999,53975,.60712E-3,.459E-4,0
BRITE-PL2 (HEWELIUSZ),2014-049B,2024-08-16T05:21:53.693568,14.89386450,.0016125,97.8847,328.6431,162.7233,197.4536,0,U,40119,999,54160,.78609E-3,.7432E-4,0
GSAT0201 (GALILEO 5),2014-050A,2024-08-15T09:02:09.721824,1.85519468,.1612844,49.5980,300.6839,153.5786,215.6744,0,U,40128,999,6587,0,-.34E-6,0
GSAT0202 (GALILEO 6),2014-050B,2024-08-15T02:17:38.779008,1.85520141,.1611823,49.6149,299.7727,154.3655,214.6336,0,U,40129,999,6803,0,-.34E-6,0
LING QIAO,2014-051A,2024-08-13T19:08:35.071296,14.29998328,.0020634,98.6716,218.3064,347.1259,12.9394,0,U,40136,999,51889,.19879E-3,.469E-5,0
CHUANGXIN 1-04 (CX-1-04),2014-051B,2024-08-13T19:26:49.403328,14.30047789,.0022231,98.6717,218.2457,348.5059,11.5612,0,U,40137,999,51843,.26014E-3,.629E-5,0
ASIASAT 6,2014-052A,2024-08-13T20:56:34.814688,1.00271786,.0000956,0.0141,96.1887,49.1119,251.5439,0,U,40141,999,3632,0,-.352E-5,0
YAOGAN-21,2014-053A,2024-08-13T20:00:06.753600,15.23691081,.0008002,97.2486,282.9630,325.9475,34.1248,0,U,40143,999,55255,.90538E-3,.21723E-3,0
TIANTUO 2,2014-053B,2024-08-13T19:59:56.698368,15.65926931,.000619,97.1188,308.4055,179.5590,180.5677,0,U,40144,999,55701,.62578E-3,.63974E-3,0
